[{"OBJECT_NAME":"CUPID","OBJECT_ID":"2021-088E","EPOCH":"2026-03-09T16:04:42.796128","MEAN_MOTION":15.24473777,"ECCENTRICITY":0.0013746,"INCLINATION":97.3985,"RA_OF_ASC_NODE":131.0756,"ARG_OF_PERICENTER":59.9938,"MEAN_ANOMALY":300.2662,"EPHEMERIS_TYPE":0,"CLASSIFICATION_TYPE":"U","NORAD_CAT_ID":49264,"ELEMENT_SET_NO":999,"REV_AT_EPOCH":24501,"BSTAR":0.00038662302,"MEAN_MOTION_DOT":9.454e-5,"MEAN_MOTION_DDOT":0},{"OBJECT_NAME":"STARLINK-30610","OBJECT_ID":"2023-160H","EPOCH":"2026-03-09T08:25:37.409952","MEAN_MOTION":15.2673357,"ECCENTRICITY":0.0001438,"INCLINATION":43.0023,"RA_OF_ASC_NODE":79.8267,"ARG_OF_PERICENTER":246.9548,"MEAN_ANOMALY":113.1152,"EPHEMERIS_TYPE":0,"CLASSIFICATION_TYPE":"U","NORAD_CAT_ID":58082,"ELEMENT_SET_NO":999,"REV_AT_EPOCH":13289,"BSTAR":-7.0759291e-5,"MEAN_MOTION_DOT":-2.157e-5,"MEAN_MOTION_DDOT":0}]
